{
  "type": "FeatureCollection",
  "features": [
    {
      "type": "Feature",
      "properties": {
        "norad_id": 31017,
        "name": "FENGYUN 1C DEB",
        "group": "fengyun-1c-debris",
        "lat": -47.57825510899419,
        "lon": -11.725505625144327,
        "alt_km": 793.8663145917062,
        "timestamp": "2025-12-18T17:50:15.236908+00:00",
        "meta_object_name": "FENGYUN 1C DEB",
        "meta_object_id": "1999-025BDK",
        "meta_epoch": "2025-12-17T21:54:38.423808",
        "meta_mean_motion": 14.08831106,
        "meta_eccentricity": 0.01129483,
        "meta_inclination": 98.6798,
        "meta_ra_of_asc_node": 337.852,
        "meta_arg_of_pericenter": 335.5494,
        "meta_mean_anomaly": 87.9981,
        "meta_ephemeris_type": 0,
        "meta_classification_type": "U",
        "meta_norad_cat_id": 31017,
        "meta_element_set_no": 999,
        "meta_rev_at_epoch": 96369,
        "meta_bstar": 0.00040732725,
        "meta_mean_motion_dot": 7.03e-06,
        "meta_mean_motion_ddot": 0,
        "tle_line1": "1 31017U 99025BDK 25351.91294472  .00000703  00000+0  40733-3 0  9990",
        "tle_line2": "2 31017  98.6798 337.8520 0112948 335.5494  87.9981 14.08831106963694"
      },
      "geometry": {
        "type": "Point",
        "coordinates": [
          -11.725505625144327,
          -47.57825510899419
        ]
      }
    },
    {
      "type": "Feature",
      "properties": {
        "norad_id": 31018,
        "name": "FENGYUN 1C DEB",
        "group": "fengyun-1c-debris",
        "lat": -10.316529159409617,
        "lon": 81.25983380708408,
        "alt_km": 860.4894038553693,
        "timestamp": "2025-12-18T17:50:15.236918+00:00",
        "meta_object_name": "FENGYUN 1C DEB",
        "meta_object_id": "1999-025BDL",
        "meta_epoch": "2025-12-17T04:36:11.512224",
        "meta_mean_motion": 14.16953051,
        "meta_eccentricity": 0.00588252,
        "meta_inclination": 99.0253,
        "meta_ra_of_asc_node": 78.0282,
        "meta_arg_of_pericenter": 113.5566,
        "meta_mean_anomaly": 247.1802,
        "meta_ephemeris_type": 0,
        "meta_classification_type": "U",
        "meta_norad_cat_id": 31018,
        "meta_element_set_no": 999,
        "meta_rev_at_epoch": 96118,
        "meta_bstar": 0.0013121177,
        "meta_mean_motion_dot": 2.635e-05,
        "meta_mean_motion_ddot": 0,
        "tle_line1": "1 31018U 99025BDL 25351.19179991  .00002635  00000+0  13121-2 0  9995",
        "tle_line2": "2 31018  99.0253  78.0282 0058825 113.5566 247.1802 14.16953051961189"
      },
      "geometry": {
        "type": "Point",
        "coordinates": [
          81.25983380708408,
          -10.316529159409617
        ]
      }
    },
    {
      "type": "Feature",
      "properties": {
        "norad_id": 31019,
        "name": "FENGYUN 1C DEB",
        "group": "fengyun-1c-debris",
        "lat": 3.273036756089443,
        "lon": -171.86498129016772,
        "alt_km": 1682.1490858335583,
        "timestamp": "2025-12-18T17:50:15.236928+00:00",
        "meta_object_name": "FENGYUN 1C DEB",
        "meta_object_id": "1999-025BDM",
        "meta_epoch": "2025-12-14T12:29:53.523168",
        "meta_mean_motion": 11.82979343,
        "meta_eccentricity": 0.11186799,
        "meta_inclination": 98.7007,
        "meta_ra_of_asc_node": 185.8561,
        "meta_arg_of_pericenter": 280.0441,
        "meta_mean_anomaly": 96.2635,
        "meta_ephemeris_type": 0,
        "meta_classification_type": "U",
        "meta_norad_cat_id": 31019,
        "meta_element_set_no": 999,
        "meta_rev_at_epoch": 55202,
        "meta_bstar": 0.0035282557,
        "meta_mean_motion_dot": 1.297e-05,
        "meta_mean_motion_ddot": 0,
        "tle_line1": "1 31019U 99025BDM 25348.52075837  .00001297  00000+0  35283-2 0  9999",
        "tle_line2": "2 31019  98.7007 185.8561 1118679 280.0441  96.2635 11.82979343552025"
      },
      "geometry": {
        "type": "Point",
        "coordinates": [
          -171.86498129016772,
          3.273036756089443
        ]
      }
    },
    {
      "type": "Feature",
      "properties": {
        "norad_id": 31021,
        "name": "FENGYUN 1C DEB",
        "group": "fengyun-1c-debris",
        "lat": -39.14794995123386,
        "lon": 110.28342433770864,
        "alt_km": 670.811608750123,
        "timestamp": "2025-12-18T17:50:15.236938+00:00",
        "meta_object_name": "FENGYUN 1C DEB",
        "meta_object_id": "1999-025BDP",
        "meta_epoch": "2025-12-14T13:05:53.511072",
        "meta_mean_motion": 14.75277457,
        "meta_eccentricity": 0.02681864,
        "meta_inclination": 98.3471,
        "meta_ra_of_asc_node": 99.084,
        "meta_arg_of_pericenter": 236.1155,
        "meta_mean_anomaly": 121.428,
        "meta_ephemeris_type": 0,
        "meta_classification_type": "U",
        "meta_norad_cat_id": 31021,
        "meta_element_set_no": 999,
        "meta_rev_at_epoch": 73459,
        "meta_bstar": 0.00058085842,
        "meta_mean_motion_dot": 7.026e-05,
        "meta_mean_motion_ddot": 0,
        "tle_line1": "1 31021U 99025BDP 25348.54575823  .00007026  00000+0  58086-3 0  9997",
        "tle_line2": "2 31021  98.3471  99.0840 0268186 236.1155 121.4280 14.75277457734590"
      },
      "geometry": {
        "type": "Point",
        "coordinates": [
          110.28342433770864,
          -39.14794995123386
        ]
      }
    },
    {
      "type": "Feature",
      "properties": {
        "norad_id": 31022,
        "name": "FENGYUN 1C DEB",
        "group": "fengyun-1c-debris",
        "lat": 0.8325318871909786,
        "lon": 56.68117106778355,
        "alt_km": 905.746961441364,
        "timestamp": "2025-12-18T17:50:15.236949+00:00",
        "meta_object_name": "FENGYUN 1C DEB",
        "meta_object_id": "1999-025BDQ",
        "meta_epoch": "2025-12-17T21:59:38.515200",
        "meta_mean_motion": 13.90453194,
        "meta_eccentricity": 0.01101354,
        "meta_inclination": 99.5162,
        "meta_ra_of_asc_node": 235.6955,
        "meta_arg_of_pericenter": 108.0233,
        "meta_mean_anomaly": 253.2962,
        "meta_ephemeris_type": 0,
        "meta_classification_type": "U",
        "meta_norad_cat_id": 31022,
        "meta_element_set_no": 999,
        "meta_rev_at_epoch": 62080,
        "meta_bstar": 0.00038274949,
        "meta_mean_motion_dot": 4.54e-06,
        "meta_mean_motion_ddot": 0,
        "tle_line1": "1 31022U 99025BDQ 25351.91641800  .00000454  00000+0  38275-3 0  9998",
        "tle_line2": "2 31022  99.5162 235.6955 0110135 108.0233 253.2962 13.90453194620809"
      },
      "geometry": {
        "type": "Point",
        "coordinates": [
          56.68117106778355,
          0.8325318871909786
        ]
      }
    },
    {
      "type": "Feature",
      "properties": {
        "norad_id": 31024,
        "name": "FENGYUN 1C DEB",
        "group": "fengyun-1c-debris",
        "lat": -10.644590103850229,
        "lon": -92.06427202144901,
        "alt_km": 851.9494614173091,
        "timestamp": "2025-12-18T17:50:15.236959+00:00",
        "meta_object_name": "FENGYUN 1C DEB",
        "meta_object_id": "1999-025BDS",
        "meta_epoch": "2025-12-16T05:02:46.636800",
        "meta_mean_motion": 14.20863582,
        "meta_eccentricity": 0.00752885,
        "meta_inclination": 99.0423,
        "meta_ra_of_asc_node": 263.6297,
        "meta_arg_of_pericenter": 114.8135,
        "meta_mean_anomaly": 246.0896,
        "meta_ephemeris_type": 0,
        "meta_classification_type": "U",
        "meta_norad_cat_id": 31024,
        "meta_element_set_no": 999,
        "meta_rev_at_epoch": 96753,
        "meta_bstar": 0.00026546706,
        "meta_mean_motion_dot": 5.45e-06,
        "meta_mean_motion_ddot": 0,
        "tle_line1": "1 31024U 99025BDS 25350.21026200  .00000545  00000+0  26547-3 0  9993",
        "tle_line2": "2 31024  99.0423 263.6297 0075288 114.8135 246.0896 14.20863582967531"
      },
      "geometry": {
        "type": "Point",
        "coordinates": [
          -92.06427202144901,
          -10.644590103850229
        ]
      }
    },
    {
      "type": "Feature",
      "properties": {
        "norad_id": 31025,
        "name": "FENGYUN 1C DEB",
        "group": "fengyun-1c-debris",
        "lat": 2.539441082988443,
        "lon": 163.14388234897788,
        "alt_km": 950.746261278884,
        "timestamp": "2025-12-18T17:50:15.236990+00:00",
        "meta_object_name": "FENGYUN 1C DEB",
        "meta_object_id": "1999-025BDT",
        "meta_epoch": "2025-12-07T05:28:07.771008",
        "meta_mean_motion": 14.20521805,
        "meta_eccentricity": 0.01734931,
        "meta_inclination": 98.58,
        "meta_ra_of_asc_node": 331.5793,
        "meta_arg_of_pericenter": 28.741,
        "meta_mean_anomaly": 332.3194,
        "meta_ephemeris_type": 0,
        "meta_classification_type": "U",
        "meta_norad_cat_id": 31025,
        "meta_element_set_no": 999,
        "meta_rev_at_epoch": 64287,
        "meta_bstar": 0.0012507545,
        "meta_mean_motion_dot": 3.084e-05,
        "meta_mean_motion_ddot": 0,
        "tle_line1": "1 31025U 99025BDT 25341.22786772  .00003084  00000+0  12508-2 0  9994",
        "tle_line2": "2 31025  98.5800 331.5793 0173493  28.7410 332.3194 14.20521805642873"
      },
      "geometry": {
        "type": "Point",
        "coordinates": [
          163.14388234897788,
          2.539441082988443
        ]
      }
    }
  ]
}